[
  {"name": "India", "code": "IN", "dial_code": "+91", "flag": "ğŸ‡®ğŸ‡³"},
  {"name": "United States", "code": "US", "dial_code": "+1", "flag": "ğŸ‡ºğŸ‡¸"},
  {"name": "United Kingdom", "code": "GB", "dial_code": "+44", "flag": "ğŸ‡¬ğŸ‡§"},
  {"name": "Canada", "code": "CA", "dial_code": "+1", "flag": "ğŸ‡¨ğŸ‡¦"},
  {"name": "Australia", "code": "AU", "dial_code": "+61", "flag": "ğŸ‡¦ğŸ‡º"},
  {"name": "United Arab Emirates", "code": "AE", "dial_code": "+971", "flag": "ğŸ‡¦ğŸ‡ª"},
  {"name": "Saudi Arabia", "code": "SA", "dial_code": "+966", "flag": "ğŸ‡¸ğŸ‡¦"},
  {"name": "Qatar", "code": "QA", "dial_code": "+974", "flag": "ğŸ‡¶ğŸ‡¦"},
  {"name": "Kuwait", "code": "KW", "dial_code": "+965", "flag": "ğŸ‡°ğŸ‡¼"},
  {"name": "Bahrain", "code": "BH", "dial_code": "+973", "flag": "ğŸ‡§ğŸ‡­"},
  {"name": "Oman", "code": "OM", "dial_code": "+968", "flag": "ğŸ‡´ğŸ‡²"},
  {"name": "Singapore", "code": "SG", "dial_code": "+65", "flag": "ğŸ‡¸ğŸ‡¬"},
  {"name": "Malaysia", "code": "MY", "dial_code": "+60", "flag": "ğŸ‡²ğŸ‡¾"},
  {"name": "Pakistan", "code": "PK", "dial_code": "+92", "flag": "ğŸ‡µğŸ‡°"},
  {"name": "Bangladesh", "code": "BD", "dial_code": "+880", "flag": "ğŸ‡§ğŸ‡©"},
  {"name": "Sri Lanka", "code": "LK", "dial_code": "+94", "flag": "ğŸ‡±ğŸ‡°"},
  {"name": "Nepal", "code": "NP", "dial_code": "+977", "flag": "ğŸ‡³ğŸ‡µ"},
  {"name": "Bhutan", "code": "BT", "dial_code": "+975", "flag": "ğŸ‡§ğŸ‡¹"},
  {"name": "Maldives", "code": "MV", "dial_code": "+960", "flag": "ğŸ‡²ğŸ‡»"},
  {"name": "Afghanistan", "code": "AF", "dial_code": "+93", "flag": "ğŸ‡¦ğŸ‡«"},
  {"name": "China", "code": "CN", "dial_code": "+86", "flag": "ğŸ‡¨ğŸ‡³"},
  {"name": "Japan", "code": "JP", "dial_code": "+81", "flag": "ğŸ‡¯ğŸ‡µ"},
  {"name": "South Korea", "code": "KR", "dial_code": "+82", "flag": "ğŸ‡°ğŸ‡·"},
  {"name": "Hong Kong", "code": "HK", "dial_code": "+852", "flag": "ğŸ‡­ğŸ‡°"},
  {"name": "Taiwan", "code": "TW", "dial_code": "+886", "flag": "ğŸ‡¹ğŸ‡¼"},
  {"name": "Indonesia", "code": "ID", "dial_code": "+62", "flag": "ğŸ‡®ğŸ‡©"},
  {"name": "Thailand", "code": "TH", "dial_code": "+66", "flag": "ğŸ‡¹ğŸ‡­"},
  {"name": "Philippines", "code": "PH", "dial_code": "+63", "flag": "ğŸ‡µğŸ‡­"},
  {"name": "Vietnam", "code": "VN", "dial_code": "+84", "flag": "ğŸ‡»ğŸ‡³"},
  {"name": "Myanmar", "code": "MM", "dial_code": "+95", "flag": "ğŸ‡²ğŸ‡²"},
  {"name": "Cambodia", "code": "KH", "dial_code": "+855", "flag": "ğŸ‡°ğŸ‡­"},
  {"name": "Laos", "code": "LA", "dial_code": "+856", "flag": "ğŸ‡±ğŸ‡¦"},
  {"name": "Germany", "code": "DE", "dial_code": "+49", "flag": "ğŸ‡©ğŸ‡ª"},
  {"name": "France", "code": "FR", "dial_code": "+33", "flag": "ğŸ‡«ğŸ‡·"},
  {"name": "Italy", "code": "IT", "dial_code": "+39", "flag": "ğŸ‡®ğŸ‡¹"},
  {"name": "Spain", "code": "ES", "dial_code": "+34", "flag": "ğŸ‡ªğŸ‡¸"},
  {"name": "Netherlands", "code": "NL", "dial_code": "+31", "flag": "ğŸ‡³ğŸ‡±"},
  {"name": "Belgium", "code": "BE", "dial_code": "+32", "flag": "ğŸ‡§ğŸ‡ª"},
  {"name": "Switzerland", "code": "CH", "dial_code": "+41", "flag": "ğŸ‡¨ğŸ‡­"},
  {"name": "Austria", "code": "AT", "dial_code": "+43", "flag": "ğŸ‡¦ğŸ‡¹"},
  {"name": "Sweden", "code": "SE", "dial_code": "+46", "flag": "ğŸ‡¸ğŸ‡ª"},
  {"name": "Norway", "code": "NO", "dial_code": "+47", "flag": "ğŸ‡³ğŸ‡´"},
  {"name": "Denmark", "code": "DK", "dial_code": "+45", "flag": "ğŸ‡©ğŸ‡°"},
  {"name": "Finland", "code": "FI", "dial_code": "+358", "flag": "ğŸ‡«ğŸ‡®"},
  {"name": "Poland", "code": "PL", "dial_code": "+48", "flag": "ğŸ‡µğŸ‡±"},
  {"name": "Russia", "code": "RU", "dial_code": "+7", "flag": "ğŸ‡·ğŸ‡º"},
  {"name": "Turkey", "code": "TR", "dial_code": "+90", "flag": "ğŸ‡¹ğŸ‡·"},
  {"name": "Israel", "code": "IL", "dial_code": "+972", "flag": "ğŸ‡®ğŸ‡±"},
  {"name": "Jordan", "code": "JO", "dial_code": "+962", "flag": "ğŸ‡¯ğŸ‡´"},
  {"name": "Lebanon", "code": "LB", "dial_code": "+961", "flag": "ğŸ‡±ğŸ‡§"},
  {"name": "Egypt", "code": "EG", "dial_code": "+20", "flag": "ğŸ‡ªğŸ‡¬"},
  {"name": "South Africa", "code": "ZA", "dial_code": "+27", "flag": "ğŸ‡¿ğŸ‡¦"},
  {"name": "Kenya", "code": "KE", "dial_code": "+254", "flag": "ğŸ‡°ğŸ‡ª"},
  {"name": "Nigeria", "code": "NG", "dial_code": "+234", "flag": "ğŸ‡³ğŸ‡¬"},
  {"name": "Ghana", "code": "GH", "dial_code": "+233", "flag": "ğŸ‡¬ğŸ‡­"},
  {"name": "Brazil", "code": "BR", "dial_code": "+55", "flag": "ğŸ‡§ğŸ‡·"},
  {"name": "Argentina", "code": "AR", "dial_code": "+54", "flag": "ğŸ‡¦ğŸ‡·"},
  {"name": "Mexico", "code": "MX", "dial_code": "+52", "flag": "ğŸ‡²ğŸ‡½"},
  {"name": "Chile", "code": "CL", "dial_code": "+56", "flag": "ğŸ‡¨ğŸ‡±"},
  {"name": "Colombia", "code": "CO", "dial_code": "+57", "flag": "ğŸ‡¨ğŸ‡´"},
  {"name": "Peru", "code": "PE", "dial_code": "+51", "flag": "ğŸ‡µğŸ‡ª"},
  {"name": "New Zealand", "code": "NZ", "dial_code": "+64", "flag": "ğŸ‡³ğŸ‡¿"},
  {"name": "Fiji", "code": "FJ", "dial_code": "+679", "flag": "ğŸ‡«ğŸ‡¯"},
  {"name": "Portugal", "code": "PT", "dial_code": "+351", "flag": "ğŸ‡µğŸ‡¹"},
  {"name": "Greece", "code": "GR", "dial_code": "+30", "flag": "ğŸ‡¬ğŸ‡·"},
  {"name": "Ireland", "code": "IE", "dial_code": "+353", "flag": "ğŸ‡®ğŸ‡ª"},
  {"name": "Iceland", "code": "IS", "dial_code": "+354", "flag": "ğŸ‡®ğŸ‡¸"},
  {"name": "Luxembourg", "code": "LU", "dial_code": "+352", "flag": "ğŸ‡±ğŸ‡º"},
  {"name": "Czech Republic", "code": "CZ", "dial_code": "+420", "flag": "ğŸ‡¨ğŸ‡¿"},
  {"name": "Hungary", "code": "HU", "dial_code": "+36", "flag": "ğŸ‡­ğŸ‡º"},
  {"name": "Romania", "code": "RO", "dial_code": "+40", "flag": "ğŸ‡·ğŸ‡´"},
  {"name": "Bulgaria", "code": "BG", "dial_code": "+359", "flag": "ğŸ‡§ğŸ‡¬"},
  {"name": "Croatia", "code": "HR", "dial_code": "+385", "flag": "ğŸ‡­ğŸ‡·"},
  {"name": "Serbia", "code": "RS", "dial_code": "+381", "flag": "ğŸ‡·ğŸ‡¸"},
  {"name": "Ukraine", "code": "UA", "dial_code": "+380", "flag": "ğŸ‡ºğŸ‡¦"},
  {"name": "Belarus", "code": "BY", "dial_code": "+375", "flag": "ğŸ‡§ğŸ‡¾"},
  {"name": "Kazakhstan", "code": "KZ", "dial_code": "+7", "flag": "ğŸ‡°ğŸ‡¿"},
  {"name": "Uzbekistan", "code": "UZ", "dial_code": "+998", "flag": "ğŸ‡ºğŸ‡¿"},
  {"name": "Azerbaijan", "code": "AZ", "dial_code": "+994", "flag": "ğŸ‡¦ğŸ‡¿"},
  {"name": "Armenia", "code": "AM", "dial_code": "+374", "flag": "ğŸ‡¦ğŸ‡²"},
  {"name": "Georgia", "code": "GE", "dial_code": "+995", "flag": "ğŸ‡¬ğŸ‡ª"},
  {"name": "Iran", "code": "IR", "dial_code": "+98", "flag": "ğŸ‡®ğŸ‡·"},
  {"name": "Iraq", "code": "IQ", "dial_code": "+964", "flag": "ğŸ‡®ğŸ‡¶"},
  {"name": "Yemen", "code": "YE", "dial_code": "+967", "flag": "ğŸ‡¾ğŸ‡ª"},
  {"name": "Syria", "code": "SY", "dial_code": "+963", "flag": "ğŸ‡¸ğŸ‡¾"}
]

